{
    "links": {
        "self": "http://www.neowsapp.com/rest/v1/neo/3400185?api_key=iIulBulltgU6a56xZRHN4H3l9WmuAYTsLGpBGhQ2"
    },
    "id": "3400185",
    "neo_reference_id": "3400185",
    "name": "(2008 BC)",
    "designation": "2008 BC",
    "nasa_jpl_url": "http://ssd.jpl.nasa.gov/sbdb.cgi?sstr=3400185",
    "absolute_magnitude_h": 24.2,
    "estimated_diameter": {
        "kilometers": {
            "estimated_diameter_min": 0.0384197891,
            "estimated_diameter_max": 0.0859092601
        },
        "meters": {
            "estimated_diameter_min": 38.4197891064,
            "estimated_diameter_max": 85.9092601232
        },
        "miles": {
            "estimated_diameter_min": 0.0238729428,
            "estimated_diameter_max": 0.0533815229
        },
        "feet": {
            "estimated_diameter_min": 126.0491808919,
            "estimated_diameter_max": 281.8545369825
        }
    },
    "is_potentially_hazardous_asteroid": false,
    "close_approach_data": [
        {
            "close_approach_date": "2008-01-11",
            "close_approach_date_full": "2008-Jan-11 23:37",
            "epoch_date_close_approach": 1200094620000,
            "relative_velocity": {
                "kilometers_per_second": "12.111002466",
                "kilometers_per_hour": "43599.6088775557",
                "miles_per_hour": "27091.1014161679"
            },
            "miss_distance": {
                "astronomical": "0.0102899999",
                "lunar": "4.0028099611",
                "kilometers": "1539362.067340213",
                "miles": "956515.2344444194"
            },
            "orbiting_body": "Earth"
        }
    ],
    "orbital_data": {
        "orbit_id": "8",
        "orbit_determination_date": "2017-04-06 09:04:38",
        "first_observation_date": "2008-01-16",
        "last_observation_date": "2008-01-20",
        "data_arc_in_days": 4,
        "observations_used": 29,
        "orbit_uncertainty": "8",
        "minimum_orbit_intersection": ".0102266",
        "jupiter_tisserand_invariant": "3.208",
        "epoch_osculation": "2454483.5",
        "eccentricity": ".6002254391744828",
        "semi_major_axis": "2.419651882364473",
        "inclination": "14.28152458398455",
        "ascending_node_longitude": "291.9624415403559",
        "orbital_period": "1374.762759100914",
        "perihelion_distance": ".9673152686228931",
        "perihelion_argument": "157.6924945526928",
        "aphelion_distance": "3.871988496106052",
        "perihelion_time": "2454460.976320986744",
        "mean_anomaly": "5.898126342959046",
        "mean_motion": ".2618633634180182",
        "equinox": "J2000",
        "orbit_class": {
            "orbit_class_type": "APO",
            "orbit_class_description": "Near-Earth asteroid orbits which cross the Earth’s orbit similar to that of 1862 Apollo",
            "orbit_class_range": "a (semi-major axis) > 1.0 AU; q (perihelion) < 1.017 AU"
        }
    },
    "is_sentry_object": false
}